{
  "type": "FeatureCollection",
  "features": [
    {
      "type": "Feature",
      "properties": {
        "norad_id": 24946,
        "name": "IRIDIUM 33",
        "group": "iridium-33-debris",
        "lat": 11.625783043131626,
        "lon": -116.12304857258427,
        "alt_km": 770.6393537760832,
        "timestamp": "2025-12-21T07:34:34.899762+00:00",
        "meta_object_name": "IRIDIUM 33",
        "meta_object_id": "1997-051C",
        "meta_epoch": "2025-12-20T17:24:25.283232",
        "meta_mean_motion": 14.35042457,
        "meta_eccentricity": 0.0007988,
        "meta_inclination": 86.3864,
        "meta_ra_of_asc_node": 64.8697,
        "meta_arg_of_pericenter": 173.6442,
        "meta_mean_anomaly": 186.4857,
        "meta_ephemeris_type": 0,
        "meta_classification_type": "U",
        "meta_norad_cat_id": 24946,
        "meta_element_set_no": 999,
        "meta_rev_at_epoch": 47949,
        "meta_bstar": 8.1849763e-05,
        "meta_mean_motion_dot": 2.53e-06,
        "meta_mean_motion_ddot": 0,
        "tle_line1": "1 24946U 97051C   25354.72529263  .00000253  00000+0  81850-4 0  9997",
        "tle_line2": "2 24946  86.3864  64.8697 0007988 173.6442 186.4857 14.35042457479498"
      },
      "geometry": {
        "type": "Point",
        "coordinates": [
          -116.12304857258427,
          11.625783043131626
        ]
      }
    },
    {
      "type": "Feature",
      "properties": {
        "norad_id": 33773,
        "name": "IRIDIUM 33 DEB",
        "group": "iridium-33-debris",
        "lat": 18.532758035434536,
        "lon": 58.16457672883063,
        "alt_km": 750.1253633853958,
        "timestamp": "2025-12-21T07:34:34.899803+00:00",
        "meta_object_name": "IRIDIUM 33 DEB",
        "meta_object_id": "1997-051L",
        "meta_epoch": "2025-12-20T21:30:24.455232",
        "meta_mean_motion": 14.43272653,
        "meta_eccentricity": 0.00131203,
        "meta_inclination": 86.4001,
        "meta_ra_of_asc_node": 57.1331,
        "meta_arg_of_pericenter": 122.7867,
        "meta_mean_anomaly": 237.46,
        "meta_ephemeris_type": 0,
        "meta_classification_type": "U",
        "meta_norad_cat_id": 33773,
        "meta_element_set_no": 999,
        "meta_rev_at_epoch": 88465,
        "meta_bstar": 0.00020658456,
        "meta_mean_motion_dot": 7.16e-06,
        "meta_mean_motion_ddot": 0,
        "tle_line1": "1 33773U 97051L   25354.89611638  .00000716  00000+0  20658-3 0  9993",
        "tle_line2": "2 33773  86.4001  57.1331 0013120 122.7867 237.4600 14.43272653884654"
      },
      "geometry": {
        "type": "Point",
        "coordinates": [
          58.16457672883063,
          18.532758035434536
        ]
      }
    },
    {
      "type": "Feature",
      "properties": {
        "norad_id": 33775,
        "name": "IRIDIUM 33 DEB",
        "group": "iridium-33-debris",
        "lat": 46.837051068628284,
        "lon": 49.781190911100325,
        "alt_km": 748.0114136395141,
        "timestamp": "2025-12-21T07:34:34.899818+00:00",
        "meta_object_name": "IRIDIUM 33 DEB",
        "meta_object_id": "1997-051N",
        "meta_epoch": "2025-12-20T22:10:57.991584",
        "meta_mean_motion": 14.4148427,
        "meta_eccentricity": 0.00150583,
        "meta_inclination": 86.3627,
        "meta_ra_of_asc_node": 46.0592,
        "meta_arg_of_pericenter": 130.12,
        "meta_mean_anomaly": 47.2727,
        "meta_ephemeris_type": 0,
        "meta_classification_type": "U",
        "meta_norad_cat_id": 33775,
        "meta_element_set_no": 999,
        "meta_rev_at_epoch": 88258,
        "meta_bstar": 0.00022031594,
        "meta_mean_motion_dot": 7.36e-06,
        "meta_mean_motion_ddot": 0,
        "tle_line1": "1 33775U 97051N   25354.92428231  .00000736  00000+0  22032-3 0  9994",
        "tle_line2": "2 33775  86.3627  46.0592 0015058 130.1200  47.2727 14.41484270882586"
      },
      "geometry": {
        "type": "Point",
        "coordinates": [
          49.781190911100325,
          46.837051068628284
        ]
      }
    },
    {
      "type": "Feature",
      "properties": {
        "norad_id": 33776,
        "name": "IRIDIUM 33 DEB",
        "group": "iridium-33-debris",
        "lat": 2.676901137607949,
        "lon": -102.99398832117703,
        "alt_km": 756.4271821576613,
        "timestamp": "2025-12-21T07:34:34.899831+00:00",
        "meta_object_name": "IRIDIUM 33 DEB",
        "meta_object_id": "1997-051P",
        "meta_epoch": "2025-12-20T17:57:25.069248",
        "meta_mean_motion": 14.38248019,
        "meta_eccentricity": 0.00152633,
        "meta_inclination": 86.4034,
        "meta_ra_of_asc_node": 77.4128,
        "meta_arg_of_pericenter": 164.7003,
        "meta_mean_anomaly": 316.1077,
        "meta_ephemeris_type": 0,
        "meta_classification_type": "U",
        "meta_norad_cat_id": 33776,
        "meta_element_set_no": 999,
        "meta_rev_at_epoch": 88197,
        "meta_bstar": 0.00019534602,
        "meta_mean_motion_dot": 6.14e-06,
        "meta_mean_motion_ddot": 0,
        "tle_line1": "1 33776U 97051P   25354.74820682  .00000614  00000+0  19535-3 0  9990",
        "tle_line2": "2 33776  86.4034  77.4128 0015263 164.7003 316.1077 14.38248019881978"
      },
      "geometry": {
        "type": "Point",
        "coordinates": [
          -102.99398832117703,
          2.676901137607949
        ]
      }
    },
    {
      "type": "Feature",
      "properties": {
        "norad_id": 33777,
        "name": "IRIDIUM 33 DEB",
        "group": "iridium-33-debris",
        "lat": 38.572451619947145,
        "lon": -151.42319205887887,
        "alt_km": 703.0743368391695,
        "timestamp": "2025-12-21T07:34:34.899842+00:00",
        "meta_object_name": "IRIDIUM 33 DEB",
        "meta_object_id": "1997-051Q",
        "meta_epoch": "2025-12-20T12:46:53.076000",
        "meta_mean_motion": 14.55663152,
        "meta_eccentricity": 0.0005789,
        "meta_inclination": 86.3775,
        "meta_ra_of_asc_node": 31.8134,
        "meta_arg_of_pericenter": 214.9048,
        "meta_mean_anomaly": 145.178,
        "meta_ephemeris_type": 0,
        "meta_classification_type": "U",
        "meta_norad_cat_id": 33777,
        "meta_element_set_no": 999,
        "meta_rev_at_epoch": 88647,
        "meta_bstar": 0.00051289,
        "meta_mean_motion_dot": 2.26e-05,
        "meta_mean_motion_ddot": 0,
        "tle_line1": "1 33777U 97051Q   25354.53255875  .00002260  00000+0  51289-3 0  9995",
        "tle_line2": "2 33777  86.3775  31.8134 0005789 214.9048 145.1780 14.55663152886479"
      },
      "geometry": {
        "type": "Point",
        "coordinates": [
          -151.42319205887887,
          38.572451619947145
        ]
      }
    },
    {
      "type": "Feature",
      "properties": {
        "norad_id": 33850,
        "name": "IRIDIUM 33 DEB",
        "group": "iridium-33-debris",
        "lat": 48.66810823141087,
        "lon": 30.664325374038622,
        "alt_km": 746.4505999401108,
        "timestamp": "2025-12-21T07:34:34.899853+00:00",
        "meta_object_name": "IRIDIUM 33 DEB",
        "meta_object_id": "1997-051T",
        "meta_epoch": "2025-12-20T20:29:38.135040",
        "meta_mean_motion": 14.42163451,
        "meta_eccentricity": 0.00130082,
        "meta_inclination": 86.3409,
        "meta_ra_of_asc_node": 26.6904,
        "meta_arg_of_pericenter": 136.6945,
        "meta_mean_anomaly": 36.4511,
        "meta_ephemeris_type": 0,
        "meta_classification_type": "U",
        "meta_norad_cat_id": 33850,
        "meta_element_set_no": 999,
        "meta_rev_at_epoch": 88269,
        "meta_bstar": 0.00025829804,
        "meta_mean_motion_dot": 8.7e-06,
        "meta_mean_motion_ddot": 0,
        "tle_line1": "1 33850U 97051T   25354.85391360  .00000870  00000+0  25830-3 0  9990",
        "tle_line2": "2 33850  86.3409  26.6904 0013008 136.6945  36.4511 14.42163451882698"
      },
      "geometry": {
        "type": "Point",
        "coordinates": [
          30.664325374038622,
          48.66810823141087
        ]
      }
    },
    {
      "type": "Feature",
      "properties": {
        "norad_id": 33853,
        "name": "IRIDIUM 33 DEB",
        "group": "iridium-33-debris",
        "lat": -3.4551664693210173,
        "lon": 166.2924338508353,
        "alt_km": 764.1636552736418,
        "timestamp": "2025-12-21T07:34:34.899863+00:00",
        "meta_object_name": "IRIDIUM 33 DEB",
        "meta_object_id": "1997-051W",
        "meta_epoch": "2025-12-20T22:14:35.889792",
        "meta_mean_motion": 13.9910315,
        "meta_eccentricity": 0.02073321,
        "meta_inclination": 85.9999,
        "meta_ra_of_asc_node": 346.2208,
        "meta_arg_of_pericenter": 210.5493,
        "meta_mean_anomaly": 176.3282,
        "meta_ephemeris_type": 0,
        "meta_classification_type": "U",
        "meta_norad_cat_id": 33853,
        "meta_element_set_no": 999,
        "meta_rev_at_epoch": 85460,
        "meta_bstar": 0.0010167565,
        "meta_mean_motion_dot": 1.786e-05,
        "meta_mean_motion_ddot": 0,
        "tle_line1": "1 33853U 97051W   25354.92680428  .00001786  00000+0  10168-2 0  9991",
        "tle_line2": "2 33853  85.9999 346.2208 0207332 210.5493 176.3282 13.99103150854603"
      },
      "geometry": {
        "type": "Point",
        "coordinates": [
          166.2924338508353,
          -3.4551664693210173
        ]
      }
    }
  ]
}